{
  "norad_id": 58807,
  "name": "STARLINK-31163",
  "history": [
    {
      "epoch": "2026-03-28T22:25:26.946624Z",
      "apogee_km": 483.78846566442735,
      "perigee_km": 482.3263451366374,
      "latitude_deg": -6.402793330212938e-07,
      "longitude_deg": -106.53274141478418,
      "height_km": 482.71768445694374,
      "semi_major_axis_km": 6861.194405400533,
      "eccentricity": 0.00010655,
      "inclination_deg": 42.9992,
      "raan_deg": 56.1772,
      "arg_perigee_deg": 279.1342,
      "mean_anomaly_deg": 80.9389,
      "mean_motion_rev_day": 15.27577225
    },
    {
      "epoch": "2026-03-29T04:42:03.985344Z",
      "apogee_km": 483.7926873733213,
      "perigee_km": 482.2544151777256,
      "latitude_deg": -3.7369653412160845e-05,
      "longitude_deg": 157.58090610281226,
      "height_km": 482.85720177621687,
      "semi_major_axis_km": 6861.160551275523,
      "eccentricity": 0.0001121,
      "inclination_deg": 43.0025,
      "raan_deg": 54.703,
      "arg_perigee_deg": 265.7564,
      "mean_anomaly_deg": 94.3159,
      "mean_motion_rev_day": 15.27588531
    }
  ]
}